start=new Date('2023-06-18T00:00:00.000Z').valueOf();
sats=[{"ARG_OF_PERICENTER":"79.1321","TLE_LINE2":"2 44724  53.0544 337.5862 0000668  79.1321 280.9743 15.06443794198634","MEAN_MOTION_DOT":"0.00016472","OBJECT_TYPE":"PAYLOAD","NORAD_CAT_ID":"44724","BSTAR":"0.00112080000000","PERIOD":"95.589","APOAPSIS":"547.542","INCLINATION":"53.0544","FILE":"3935891","EPOCH":"2023-06-17T17:53:49.235136","CENTER_NAME":"EARTH","REV_AT_EPOCH":"19863","CLASSIFICATION_TYPE":"U","MEAN_ANOMALY":"280.9743","MEAN_MOTION":"15.06443794","SITE":"AFETR","MEAN_ELEMENT_THEORY":"SGP4","ECCENTRICITY":"0.00006680","REF_FRAME":"TEME","PERIAPSIS":"546.617","RCS_SIZE":"LARGE","DECAY_DATE":null,"ELEMENT_SET_NO":"999","RA_OF_ASC_NODE":"337.5862","OBJECT_ID":"2019-074M","SEMIMAJOR_AXIS":"6925.214","MEAN_MOTION_DDOT":"0.0000000000000","EPHEMERIS_TYPE":"0","LAUNCH_DATE":"2019-11-11","COUNTRY_CODE":"US","GP_ID":"234166956","TIME_SYSTEM":"UTC","OBJECT_NAME":"STARLINK-1019","TLE_LINE1":"1 44724U 19074M   23168.74570874  .00016472  00000-0  11208-2 0  9998"},{"COUNTRY_CODE":"US","GP_ID":"234165704","MEAN_MOTION_DDOT":"0.0000000000000","EPHEMERIS_TYPE":"0","LAUNCH_DATE":"2019-11-11","TLE_LINE1":"1 44725U 19074N   23168.81758662  .00017551  00000-0  11928-2 0  9998","TIME_SYSTEM":"UTC","OBJECT_NAME":"STARLINK-1020","PERIAPSIS":"546.382","REF_FRAME":"TEME","OBJECT_ID":"2019-074N","RA_OF_ASC_NODE":"357.2579","SEMIMAJOR_AXIS":"6925.216","RCS_SIZE":"LARGE","DECAY_DATE":null,"ELEMENT_SET_NO":"999","REV_AT_EPOCH":"19836","CLASSIFICATION_TYPE":"U","MEAN_ANOMALY":"274.2342","APOAPSIS":"547.780","INCLINATION":"53.0548","FILE":"3935891","EPOCH":"2023-06-17T19:37:19.483968","CENTER_NAME":"EARTH","ECCENTRICITY":"0.00010100","MEAN_MOTION":"15.06443247","SITE":"AFETR","MEAN_ELEMENT_THEORY":"SGP4","OBJECT_TYPE":"PAYLOAD","NORAD_CAT_ID":"44725","BSTAR":"0.00119280000000","ARG_OF_PERICENTER":"85.8762","MEAN_MOTION_DOT":"0.00017551","TLE_LINE2":"2 44725  53.0548 357.2579 0001010  85.8762 274.2342 15.06443247198362","PERIOD":"95.589"},{"BSTAR":"0.00110840000000","NORAD_CAT_ID":"44726","OBJECT_TYPE":"PAYLOAD","TLE_LINE2":"2 44726  53.0539 337.6027 0000966  89.1464 270.9635 15.06443257198637","MEAN_MOTION_DOT":"0.00016286","ARG_OF_PERICENTER":"89.1464","PERIOD":"95.589","CLASSIFICATION_TYPE":"U","MEAN_ANOMALY":"270.9635","REV_AT_EPOCH":"19863","EPOCH":"2023-06-17T17:48:30.921120","CENTER_NAME":"EARTH","INCLINATION":"53.0539","FILE":"3935891","APOAPSIS":"547.750","ECCENTRICITY":"0.00009660","MEAN_ELEMENT_THEORY":"SGP4","MEAN_MOTION":"15.06443257","SITE":"AFETR","PERIAPSIS":"546.412","REF_FRAME":"TEME","SEMIMAJOR_AXIS":"6925.216","OBJECT_ID":"2019-074P","RA_OF_ASC_NODE":"337.6027","ELEMENT_SET_NO":"999","DECAY_DATE":null,"RCS_SIZE":"LARGE","GP_ID":"234165954","COUNTRY_CODE":"US","LAUNCH_DATE":"2019-11-11","EPHEMERIS_TYPE":"0","MEAN_MOTION_DDOT":"0.0000000000000","TLE_LINE1":"1 44726U 19074P   23168.74202455  .00016286  00000-0  11084-2 0  9992","OBJECT_NAME":"STARLINK-1021","TIME_SYSTEM":"UTC"},{"LAUNCH_DATE":"2019-11-11","EPHEMERIS_TYPE":"0","MEAN_MOTION_DDOT":"0.0000000000000","GP_ID":"234166706","COUNTRY_CODE":"US","OBJECT_NAME":"STARLINK-1022","TIME_SYSTEM":"UTC","TLE_LINE1":"1 44727U 19074Q   23168.66302441  .00053572  00000-0  29813-3 0  9999","REF_FRAME":"TEME","PERIAPSIS":"332.136","ELEMENT_SET_NO":"999","DECAY_DATE":null,"RCS_SIZE":"LARGE","SEMIMAJOR_AXIS":"6711.539","RA_OF_ASC_NODE":"345.2911","OBJECT_ID":"2019-074Q","EPOCH":"2023-06-17T15:54:45.309024","CENTER_NAME":"EARTH","FILE":"3935891","INCLINATION":"53.0517","APOAPSIS":"334.672","MEAN_ANOMALY":"52.2729","CLASSIFICATION_TYPE":"U","REV_AT_EPOCH":"19853","MEAN_ELEMENT_THEORY":"SGP4","SITE":"AFETR","MEAN_MOTION":"15.78954340","ECCENTRICITY":"0.00018890","MEAN_MOTION_DOT":"0.00053572","TLE_LINE2":"2 44727  53.0517 345.2911 0001889 307.8120  52.2729 15.78954340198538","ARG_OF_PERICENTER":"307.8120","BSTAR":"0.00029813000000","NORAD_CAT_ID":"44727","OBJECT_TYPE":"PAYLOAD","PERIOD":"91.200"},{"PERIOD":"93.050","OBJECT_TYPE":"PAYLOAD","NORAD_CAT_ID":"44729","BSTAR":"0.00046213000000","ARG_OF_PERICENTER":"155.0756","TLE_LINE2":"2 44729  53.0205 295.9670 0006808 155.0756 205.0581 15.47560697199170","MEAN_MOTION_DOT":"0.00023830","ECCENTRICITY":"0.00068080","MEAN_MOTION":"15.47560697","SITE":"AFETR","MEAN_ELEMENT_THEORY":"SGP4","REV_AT_EPOCH":"19917","CLASSIFICATION_TYPE":"U","MEAN_ANOMALY":"205.0581","APOAPSIS":"428.497","FILE":"3935891","INCLINATION":"53.0205","EPOCH":"2023-06-17T18:17:52.743264","CENTER_NAME":"EARTH","RA_OF_ASC_NODE":"295.9670","OBJECT_ID":"2019-074S","SEMIMAJOR_AXIS":"6802.001","RCS_SIZE":"LARGE","DECAY_DATE":null,"ELEMENT_SET_NO":"999","PERIAPSIS":"419.236","REF_FRAME":"TEME","TLE_LINE1":"1 44729U 19074S   23168.76241601  .00023830  00000-0  46213-3 0  9999","TIME_SYSTEM":"UTC","OBJECT_NAME":"STARLINK-1024","COUNTRY_CODE":"US","GP_ID":"234167456","MEAN_MOTION_DDOT":"0.0000000000000","EPHEMERIS_TYPE":"0","LAUNCH_DATE":"2019-11-11"},{"PERIOD":"95.589","OBJECT_TYPE":"PAYLOAD","NORAD_CAT_ID":"44731","BSTAR":"0.00117390000000","ARG_OF_PERICENTER":"78.8514","TLE_LINE2":"2 44731  53.0548 337.5484 0000923  78.8514 281.2579 15.06447255198637","MEAN_MOTION_DOT":"0.00017269","ECCENTRICITY":"0.00009230","SITE":"AFETR","MEAN_MOTION":"15.06447255","MEAN_ELEMENT_THEORY":"SGP4","REV_AT_EPOCH":"19863","MEAN_ANOMALY":"281.2579","CLASSIFICATION_TYPE":"U","APOAPSIS":"547.708","INCLINATION":"53.0548","FILE":"3935891","EPOCH":"2023-06-17T18:04:26.019552","CENTER_NAME":"EARTH","RA_OF_ASC_NODE":"337.5484","OBJECT_ID":"2019-074U","SEMIMAJOR_AXIS":"6925.204","RCS_SIZE":"LARGE","DECAY_DATE":null,"ELEMENT_SET_NO":"999","PERIAPSIS":"546.430","REF_FRAME":"TEME","TLE_LINE1":"1 44731U 19074U   23168.75307893  .00017269  00000-0  11739-2 0  9990","TIME_SYSTEM":"UTC","OBJECT_NAME":"STARLINK-1026","COUNTRY_CODE":"US","GP_ID":"234166204","MEAN_MOTION_DDOT":"0.0000000000000","EPHEMERIS_TYPE":"0","LAUNCH_DATE":"2019-11-11"},{"REF_FRAME":"TEME","PERIAPSIS":"546.476","ELEMENT_SET_NO":"999","RCS_SIZE":"LARGE","DECAY_DATE":null,"OBJECT_ID":"2019-074V","RA_OF_ASC_NODE":"357.3081","SEMIMAJOR_AXIS":"6925.291","LAUNCH_DATE":"2019-11-11","MEAN_MOTION_DDOT":"0.0000000000000","EPHEMERIS_TYPE":"0","GP_ID":"234166454","COUNTRY_CODE":"US","OBJECT_NAME":"STARLINK-1027","TIME_SYSTEM":"UTC","TLE_LINE1":"1 44732U 19074V   23168.80654831  .00013113  00000-0  89711-3 0  9994","MEAN_MOTION_DOT":"0.00013113","TLE_LINE2":"2 44732  53.0541 357.3081 0000982  80.9551 279.1549 15.06418805198366","ARG_OF_PERICENTER":"80.9551","NORAD_CAT_ID":"44732","BSTAR":"0.00089711000000","OBJECT_TYPE":"PAYLOAD","PERIOD":"95.591","INCLINATION":"53.0541","FILE":"3935891","CENTER_NAME":"EARTH","EPOCH":"2023-06-17T19:21:25.773984","APOAPSIS":"547.836","CLASSIFICATION_TYPE":"U","MEAN_ANOMALY":"279.1549","REV_AT_EPOCH":"19836","MEAN_ELEMENT_THEORY":"SGP4","MEAN_MOTION":"15.06418805","SITE":"AFETR","ECCENTRICITY":"0.00009820"},{"MEAN_MOTION_DOT":"0.00023407","TLE_LINE2":"2 44733  53.0545 337.6184 0000679  67.8567 292.2494 15.06455831198635","ARG_OF_PERICENTER":"67.8567","BSTAR":"0.00158270000000","NORAD_CAT_ID":"44733","OBJECT_TYPE":"PAYLOAD","PERIOD":"95.589","EPOCH":"2023-06-17T17:43:12.215712","CENTER_NAME":"EARTH","FILE":"3935891","INCLINATION":"53.0545","APOAPSIS":"547.513","CLASSIFICATION_TYPE":"U","MEAN_ANOMALY":"292.2494","REV_AT_EPOCH":"19863","MEAN_ELEMENT_THEORY":"SGP4","MEAN_MOTION":"15.06455831","SITE":"AFETR","ECCENTRICITY":"0.00006790","REF_FRAME":"TEME","PERIAPSIS":"546.572","ELEMENT_SET_NO":"999","DECAY_DATE":null,"RCS_SIZE":"LARGE","SEMIMAJOR_AXIS":"6925.177","RA_OF_ASC_NODE":"337.6184","OBJECT_ID":"2019-074W","LAUNCH_DATE":"2019-11-11","EPHEMERIS_TYPE":"0","MEAN_MOTION_DDOT":"0.0000000000000","GP_ID":"234167206","COUNTRY_CODE":"US","OBJECT_NAME":"STARLINK-1028","TIME_SYSTEM":"UTC","TLE_LINE1":"1 44733U 19074W   23168.73833583  .00023407  00000-0  15827-2 0  9993"},{"COUNTRY_CODE":"US","GP_ID":"234132864","MEAN_MOTION_DDOT":"0.0000000000000","EPHEMERIS_TYPE":"0","LAUNCH_DATE":"2019-11-11","TLE_LINE1":"1 44734U 19074X   23168.55402693  .00017001  00000-0  11556-2 0  9996","TIME_SYSTEM":"UTC","OBJECT_NAME":"STARLINK-1029","PERIAPSIS":"546.483","REF_FRAME":"TEME","OBJECT_ID":"2019-074X","RA_OF_ASC_NODE":"258.4478","SEMIMAJOR_AXIS":"6925.165","RCS_SIZE":"LARGE","DECAY_DATE":null,"ELEMENT_SET_NO":"999","REV_AT_EPOCH":"19970","CLASSIFICATION_TYPE":"U","MEAN_ANOMALY":"296.8758","APOAPSIS":"547.577","FILE":"3935591","INCLINATION":"53.0537","EPOCH":"2023-06-17T13:17:47.926752","CENTER_NAME":"EARTH","ECCENTRICITY":"0.00007900","SITE":"AFETR","MEAN_MOTION":"15.06459915","MEAN_ELEMENT_THEORY":"SGP4","OBJECT_TYPE":"PAYLOAD","NORAD_CAT_ID":"44734","BSTAR":"0.00115560000000","ARG_OF_PERICENTER":"63.2311","TLE_LINE2":"2 44734  53.0537 258.4478 0000790  63.2311 296.8758 15.06459915199703","MEAN_MOTION_DOT":"0.00017001","PERIOD":"95.588"},{"PERIOD":"95.590","MEAN_MOTION_DOT":"0.00015943","TLE_LINE2":"2 44735  53.0550 357.2798 0000919  76.1458 283.9634 15.06426436198363","ARG_OF_PERICENTER":"76.1458","NORAD_CAT_ID":"44735","BSTAR":"0.00108600000000","OBJECT_TYPE":"PAYLOAD","MEAN_ELEMENT_THEORY":"SGP4","SITE":"AFETR","MEAN_MOTION":"15.06426436","ECCENTRICITY":"0.00009190","FILE":"3935891","INCLINATION":"53.0550","EPOCH":"2023-06-17T19:32:02.618880","CENTER_NAME":"EARTH","APOAPSIS":"547.769","MEAN_ANOMALY":"283.9634","CLASSIFICATION_TYPE":"U","REV_AT_EPOCH":"19836","ELEMENT_SET_NO":"999","RCS_SIZE":"LARGE","DECAY_DATE":null,"OBJECT_ID":"2019-074Y","RA_OF_ASC_NODE":"357.2798","SEMIMAJOR_AXIS":"6925.268","REF_FRAME":"TEME","PERIAPSIS":"546.496","OBJECT_NAME":"STARLINK-1030","TIME_SYSTEM":"UTC","TLE_LINE1":"1 44735U 19074Y   23168.81391920  .00015943  00000-0  10860-2 0  9996","LAUNCH_DATE":"2019-11-11","MEAN_MOTION_DDOT":"0.0000000000000","EPHEMERIS_TYPE":"0","GP_ID":"234165705","COUNTRY_CODE":"US"}];
